NORAD_CAT_ID,OBJECT_NAME,OBJECT_TYPE,EPOCH,MEAN_MOTION,ECCENTRICITY,INCLINATION,RA_OF_ASC_NODE,ARG_OF_PERICENTER,MEAN_ANOMALY,BSTAR,MEAN_MOTION_DOT,MEAN_MOTION_DDOT,TLE_LINE0,TLE_LINE1,TLE_LINE2,SEMIMAJOR_AXIS,PERIOD,APOGEE,PERIGEE,DECAYED
52464.0,STARLINK-3904,PAYLOAD,2024-06-08 02:59:14,15.0884158,0.0001149,53.2178,50.2425,92.1989,267.9135,0.00012467,1.697e-05,0.0,0 STARLINK-3904,1 52464U 22049P   24160.12447154  .00001697  00000-0  12467-3 0  9995,2 52464  53.2178  50.2425 0001149  92.1989 267.9135 15.08841580115853,6917.876,95.437,540.535,538.946,0.0
52464.0,STARLINK-3904,PAYLOAD,2024-06-08 09:20:46,15.0885799,0.0002475,53.217,49.0527,75.0946,285.032,0.00022499,3.296e-05,0.0,0 STARLINK-3904,1 52464U 22049P   24160.38942277  .00003296  00000-0  22499-3 0  9992,2 52464  53.2170  49.0527 0002475  75.0946 285.0320 15.08857990115736,6917.825,95.436,541.403,537.978,0.0
52464.0,STARLINK-3904,PAYLOAD,2024-06-08 22:03:54,15.08825239,0.0001795,53.218,46.6727,75.6056,284.5135,-0.00016468,-2.907e-05,0.0,0 STARLINK-3904,1 52464U 22049P   24160.91937635 -.00002907  00000-0 -16468-3 0  9992,2 52464  53.2180  46.6727 0001795  75.6056 284.5135 15.08825239115812,6917.926,95.438,541.032,538.549,0.0
52464.0,STARLINK-3904,PAYLOAD,2024-06-08 23:39:17,15.0882545,0.0001479,53.217,46.3774,79.194,280.9218,-0.00015516,-2.755e-05,0.0,0 STARLINK-3904,1 52464U 22049P   24160.98561537 -.00002755  00000-0 -15516-3 0  9997,2 52464  53.2170  46.3774 0001479  79.1940 280.9218 15.08825450115985,6917.925,95.438,540.813,538.767,0.0
52464.0,STARLINK-3904,PAYLOAD,2024-06-09 21:54:40,15.08837098,0.0001201,53.2187,42.2158,96.9608,263.1521,5.6985e-05,6.19e-06,0.0,0 STARLINK-3904,1 52464U 22049P   24161.91296592  .00000619  00000-0  56985-4 0  9998,2 52464  53.2187  42.2158 0001201  96.9608 263.1521 15.08837098115964,6917.889,95.438,540.585,538.923,0.0
52464.0,STARLINK-3904,PAYLOAD,2024-06-09 23:30:03,15.08839025,0.0001225,53.2187,41.9178,96.6177,263.4954,4.1574e-05,3.74e-06,0.0,0 STARLINK-3904,1 52464U 22049P   24161.97920578  .00000374  00000-0  41574-4 0  9998,2 52464  53.2187  41.9178 0001225  96.6177 263.4954 15.08839025116131,6917.883,95.438,540.596,538.901,0.0
52464.0,STARLINK-3904,PAYLOAD,2024-06-10 09:02:21,15.08851554,0.000115,53.218,40.1324,80.0989,280.0133,0.00011276,1.508e-05,0.0,0 STARLINK-3904,1 52464U 22049P   24162.37663635  .00001508  00000-0  11276-3 0  9996,2 52464  53.2180  40.1324 0001150  80.0989 280.0133 15.08851554116194,6917.845,95.437,540.506,538.915,0.0
52464.0,STARLINK-3904,PAYLOAD,2024-06-10 20:10:04,15.08832581,0.0001802,53.2184,38.0491,85.2569,274.8629,0.00023989,3.531e-05,0.0,0 STARLINK-3904,1 52464U 22049P   24162.84032534  .00003531  00000-0  23989-3 0  9998,2 52464  53.2184  38.0491 0001802  85.2569 274.8629 15.08832581116262,6917.903,95.438,541.015,538.521,0.0
52464.0,STARLINK-3904,PAYLOAD,2024-06-10 21:45:26,15.0887157,0.0001414,53.2203,37.7515,69.0218,291.0926,-0.00039406,-6.559e-05,0.0,0 STARLINK-3904,1 52464U 22049P   24162.90656107 -.00006559  00000-0 -39406-3 0  9999,2 52464  53.2203  37.7515 0001414  69.0218 291.0926 15.08871570116113,6917.784,95.436,540.627,538.671,0.0
52464.0,STARLINK-3904,PAYLOAD,2024-06-11 08:53:08,15.08853755,0.0001066,53.2184,35.6715,78.2181,281.8931,0.00023981,3.532e-05,0.0,0 STARLINK-3904,1 52464U 22049P   24163.37023192  .00003532  00000-0  23981-3 0  9990,2 52464  53.2184  35.6715 0001066  78.2181 281.8931 15.08853755116189,6917.838,95.437,540.441,538.966,0.0
52464.0,STARLINK-3904,PAYLOAD,2024-06-11 21:36:13,15.08846156,0.0001124,53.2169,33.2912,83.5631,276.5489,1.3578e-05,-7.2e-07,0.0,0 STARLINK-3904,1 52464U 22049P   24163.90016194 -.00000072  00000-0  13578-4 0  9992,2 52464  53.2169  33.2912 0001124  83.5631 276.5489 15.08846156116422,6917.862,95.437,540.504,538.949,0.0
52464.0,STARLINK-3904,PAYLOAD,2024-06-12 08:43:55,15.08854381,0.000127,53.2186,31.209,88.6496,271.4642,8.542e-05,1.072e-05,0.0,0 STARLINK-3904,1 52464U 22049P   24164.36383192  .00001072  00000-0  85420-4 0  9993,2 52464  53.2186  31.2090 0001270  88.6496 271.4642 15.08854381116494,6917.836,95.437,540.58,538.823,0.0
52464.0,STARLINK-3904,PAYLOAD,2024-06-12 19:51:38,15.08831469,0.0001411,53.2204,29.1261,99.0316,261.0836,2.5837e-06,-2.47e-06,0.0,0 STARLINK-3904,1 52464U 22049P   24164.82752981 -.00000247  00000-0  25837-5 0  9991,2 52464  53.2204  29.1261 0001411  99.0316 261.0836 15.08831469116565,6917.906,95.438,540.748,538.795,0.0
52464.0,STARLINK-3904,PAYLOAD,2024-06-13 14:56:15,15.08837313,0.0001459,53.2174,25.5553,113.6815,246.4331,5.6778e-05,6.16e-06,0.0,0 STARLINK-3904,1 52464U 22049P   24165.62240278  .00000616  00000-0  56778-4 0  9997,2 52464  53.2174  25.5553 0001459 113.6815 246.4331 15.08837313116521,6917.889,95.438,540.763,538.744,0.0
52464.0,STARLINK-3904,PAYLOAD,2024-06-13 21:17:47,15.08843531,0.0001234,53.2186,24.3694,103.6416,256.4714,4.0739e-05,3.61e-06,0.0,0 STARLINK-3904,1 52464U 22049P   24165.88736067  .00000361  00000-0  40739-4 0  9998,2 52464  53.2186  24.3694 0001234 103.6416 256.4714 15.08843531116721,6917.87,95.437,540.588,538.881,0.0
52464.0,STARLINK-3904,PAYLOAD,2024-06-14 00:28:34,15.08845154,0.0001183,53.2184,23.7763,90.6102,269.5026,3.3946e-05,2.53e-06,0.0,0 STARLINK-3904,1 52464U 22049P   24166.01984046  .00000253  00000-0  33946-4 0  9998,2 52464  53.2184  23.7763 0001183  90.6102 269.5026 15.08845154116587,6917.865,95.437,540.548,538.911,0.0
52464.0,STARLINK-3904,PAYLOAD,2024-06-14 21:08:36,15.08811675,0.0001194,53.218,19.9146,91.9004,268.2125,0.00057723,8.904e-05,0.0,0 STARLINK-3904,1 52464U 22049P   24166.88097916  .00008904  00000-0  57723-3 0  9993,2 52464  53.2180  19.9146 0001194  91.9004 268.2125 15.08811675116714,6917.967,95.439,540.658,539.006,0.0
52464.0,STARLINK-3904,PAYLOAD,2024-06-15 06:40:53,15.088476,0.0001147,53.2188,18.1295,89.4204,270.692,0.00018357,2.635e-05,0.0,0 STARLINK-3904,1 52464U 22049P   24167.27839869  .00002635  00000-0  18357-3 0  9993,2 52464  53.2188  18.1295 0001147  89.4204 270.6920 15.08847600116773,6917.857,95.437,540.516,538.929,0.0
52464.0,STARLINK-3904,PAYLOAD,2024-06-15 20:59:22,15.08834973,0.0001354,53.2193,15.4574,101.9063,258.2081,8.9224e-05,1.132e-05,0.0,0 STARLINK-3904,1 52464U 22049P   24167.87457071  .00001132  00000-0  89224-4 0  9993,2 52464  53.2193  15.4574 0001354 101.9063 258.2081 15.08834973116861,6917.896,95.438,540.697,538.824,0.0
52464.0,STARLINK-3904,PAYLOAD,2024-06-16 06:31:40,15.08850018,0.0001346,53.2188,13.6685,92.4984,267.6162,0.00014851,2.077e-05,0.0,0 STARLINK-3904,1 52464U 22049P   24168.27199948  .00002077  00000-0  14851-3 0  9996,2 52464  53.2188  13.6685 0001346  92.4984 267.6162 15.08850018116924,6917.85,95.437,540.646,538.784,0.0
52464.0,STARLINK-3904,PAYLOAD,2024-06-16 22:25:32,15.08837585,0.000132,53.2176,10.6957,86.5938,273.5205,8.7227e-06,-1.49e-06,0.0,0 STARLINK-3904,1 52464U 22049P   24168.93440725 -.00000149  00000-0  87227-5 0  9999,2 52464  53.2176  10.6957 0001320  86.5938 273.5205 15.08837585117025,6917.888,95.438,540.666,538.84,0.0
52464.0,STARLINK-3904,PAYLOAD,2024-06-17 20:40:57,15.08835756,0.0001373,53.2179,6.5326,88.5328,271.5821,6.1063e-05,6.84e-06,0.0,0 STARLINK-3904,1 52464U 22049P   24169.86177185  .00000684  00000-0  61063-4 0  9991,2 52464  53.2179   6.5326 0001373  88.5328 271.5821 15.08835756117328,6917.893,95.438,540.708,538.809,0.0
52464.0,STARLINK-3904,PAYLOAD,2024-06-17 22:16:20,15.08837877,0.0001334,53.2179,6.2344,89.3946,270.7199,9.1744e-05,1.172e-05,0.0,0 STARLINK-3904,1 52464U 22049P   24169.92801117  .00001172  00000-0  91744-4 0  9999,2 52464  53.2179   6.2344 0001334  89.3946 270.7199 15.08837877117175,6917.887,95.438,540.675,538.829,0.0
52464.0,STARLINK-3904,PAYLOAD,2024-06-18 22:07:07,15.08840837,0.0001322,53.2181,1.7737,78.0236,282.0905,0.00012076,1.635e-05,0.0,0 STARLINK-3904,1 52464U 22049P   24170.92161205  .00001635  00000-0  12076-3 0  9992,2 52464  53.2181   1.7737 0001322  78.0236 282.0905 15.08840837117326,6917.878,95.438,540.657,538.828,0.0
52464.0,STARLINK-3904,PAYLOAD,2024-06-19 12:25:35,15.08844055,0.0001166,53.2173,359.0953,88.4173,271.6952,0.00019628,2.838e-05,0.0,0 STARLINK-3904,1 52464U 22049P   24171.51776915  .00002838  00000-0  19628-3 0  9994,2 52464  53.2173 359.0953 0001166  88.4173 271.6952 15.08844055117419,6917.868,95.437,540.54,538.926,0.0
52464.0,STARLINK-3904,PAYLOAD,2024-06-19 18:47:08,15.08836793,0.0001232,53.2171,357.9074,94.8467,265.2666,8.937e-05,1.135e-05,0.0,0 STARLINK-3904,1 52464U 22049P   24171.78273507  .00001135  00000-0  89370-4 0  9993,2 52464  53.2171 357.9074 0001232  94.8467 265.2666 15.08836793117612,6917.89,95.438,540.607,538.903,0.0
52464.0,STARLINK-3904,PAYLOAD,2024-06-19 21:57:54,15.08842016,0.0001318,53.2179,357.3118,99.2429,260.8712,7.1956e-05,8.58e-06,0.0,0 STARLINK-3904,1 52464U 22049P   24171.91521218  .00000858  00000-0  71956-4 0  9995,2 52464  53.2179 357.3118 0001318  99.2429 260.8712 15.08842016117477,6917.874,95.437,540.651,538.827,0.0
52464.0,STARLINK-3904,PAYLOAD,2024-06-20 05:54:49,15.08848624,0.0001296,53.218,355.8248,98.7536,261.3603,0.00011973,1.619e-05,0.0,0 STARLINK-3904,1 52464U 22049P   24172.24640632  .00001619  00000-0  11973-3 0  9992,2 52464  53.2180 355.8248 0001296  98.7536 261.3603 15.08848624117526,6917.854,95.437,540.616,538.822,0.0
52464.0,STARLINK-3904,PAYLOAD,2024-06-20 21:48:41,15.08845863,0.0001347,53.2191,352.8515,98.6011,261.5134,8.6874e-05,1.095e-05,0.0,0 STARLINK-3904,1 52464U 22049P   24172.90880879  .00001095  00000-0  86874-4 0  9995,2 52464  53.2191 352.8515 0001347  98.6011 261.5134 15.08845863117787,6917.862,95.437,540.659,538.796,0.0
52464.0,STARLINK-3904,PAYLOAD,2024-06-21 12:07:09,15.0883321,0.0001032,53.2207,350.1744,103.7122,256.3985,0.00022518,3.297e-05,0.0,0 STARLINK-3904,1 52464U 22049P   24173.50497243  .00003297  00000-0  22518-3 0  9991,2 52464  53.2207 350.1744 0001032 103.7122 256.3985 15.08833210117871,6917.901,95.438,540.48,539.052,0.0
